,Yelp_ID,Business_Name,Business_type,City,country,Address,Zipcode,Latitude,Longitude,url
0,bmEZDiadw_WNK0JUim5fUw,Agnes Etherington Art Centre,Art Museums,Kingston,CA,36 University Avenue,K7L 3N6,44.22536,-76.49626,https://www.yelp.com/biz/agnes-etherington-art-centre-kingston?adjust_creative=F8OOUfRx1ujSudXJ-CRTfA&utm_campaign=yelp_api_v3&utm_medium=api_v3_business_search&utm_source=F8OOUfRx1ujSudXJ-CRTfA
1,NpII7yrFYHjjKADMILX_yw,Amazing Science Centre,Museums,Cornwall,CA,52 Eighth St E,K6H 2J6,45.0274051,-74.7321924,https://www.yelp.com/biz/amazing-science-centre-cornwall?adjust_creative=F8OOUfRx1ujSudXJ-CRTfA&utm_campaign=yelp_api_v3&utm_medium=api_v3_business_search&utm_source=F8OOUfRx1ujSudXJ-CRTfA
2,NdHyh2i0V1452rpID0XDog,Amherstburg Freedom Museum,Museums,Amherstburg,CA,277 King Street,N9V 2C7,42.10132,-83.10569,https://www.yelp.com/biz/amherstburg-freedom-museum-amherstburg?adjust_creative=F8OOUfRx1ujSudXJ-CRTfA&utm_campaign=yelp_api_v3&utm_medium=api_v3_business_search&utm_source=F8OOUfRx1ujSudXJ-CRTfA
3,bvr_xQX-1ra1wU39YiLtQw,Aquatarium,Aquariums,Brockville,CA,6 Broad Street,K6V 0C4,44.587934,-75.6826267,https://www.yelp.com/biz/aquatarium-brockville?adjust_creative=F8OOUfRx1ujSudXJ-CRTfA&utm_campaign=yelp_api_v3&utm_medium=api_v3_business_search&utm_source=F8OOUfRx1ujSudXJ-CRTfA
4,XDXvX7NS5h1zBCMSmN6oyg,Art Conservation Services,Art Restoration,London,CA,421 Ridout Street N,N6A 5H4,42.9826,-81.2548,https://www.yelp.com/biz/art-conservation-services-london?adjust_creative=F8OOUfRx1ujSudXJ-CRTfA&utm_campaign=yelp_api_v3&utm_medium=api_v3_business_search&utm_source=F8OOUfRx1ujSudXJ-CRTfA
5,sQE9JuasZ7buV4FYJG860g,Art Gallery of Guelph,Art Museums,Guelph,CA,358 Gordon St,N1G 1Y1,43.53295538,-80.23293972,https://www.yelp.com/biz/art-gallery-of-guelph-guelph-2?adjust_creative=F8OOUfRx1ujSudXJ-CRTfA&utm_campaign=yelp_api_v3&utm_medium=api_v3_business_search&utm_source=F8OOUfRx1ujSudXJ-CRTfA
6,KWojrEKjUqHCRI5HO7pB4g,Art Gallery of Ontario AGO,Art Museums,Toronto,CA,317 Dundas Street W,M5T 1G4,43.6536766,-79.3923394,https://www.yelp.com/biz/art-gallery-of-ontario-ago-toronto?adjust_creative=F8OOUfRx1ujSudXJ-CRTfA&utm_campaign=yelp_api_v3&utm_medium=api_v3_business_search&utm_source=F8OOUfRx1ujSudXJ-CRTfA
7,Hta1CE_8yszQ0e9iT8vwgA,Backus Heritage Conservation Area,Museums,Port Rowan,CA,RR 1,N0E 1M0,42.63855743,-80.48214722,https://www.yelp.com/biz/backus-heritage-conservation-area-port-rowan?adjust_creative=F8OOUfRx1ujSudXJ-CRTfA&utm_campaign=yelp_api_v3&utm_medium=api_v3_business_search&utm_source=F8OOUfRx1ujSudXJ-CRTfA
8,uMkwXk7tajfOxEE9qo6rYQ,Bank of Canada Museum,Museums,Ottawa,CA,30 Bank Street,K1A 0G9,45.4212817,-75.7016505,https://www.yelp.com/biz/bank-of-canada-museum-ottawa?adjust_creative=F8OOUfRx1ujSudXJ-CRTfA&utm_campaign=yelp_api_v3&utm_medium=api_v3_business_search&utm_source=F8OOUfRx1ujSudXJ-CRTfA
9,zpn9mdMfG-i6j18nMdY-_g,Banting House National Historic Site,Museums,London,CA,442 Adelaide Street N,N6B 3H8,42.99,-81.2318,https://www.yelp.com/biz/banting-house-national-historic-site-london?adjust_creative=F8OOUfRx1ujSudXJ-CRTfA&utm_campaign=yelp_api_v3&utm_medium=api_v3_business_search&utm_source=F8OOUfRx1ujSudXJ-CRTfA
10,AcQYAFOnrcAiRcNzxurj8Q,Battlefield House,Museums,Stoney Creek,CA,77 King Street W,L8G 1H9,43.21845,-79.76613,https://www.yelp.com/biz/battlefield-house-stoney-creek?adjust_creative=F8OOUfRx1ujSudXJ-CRTfA&utm_campaign=yelp_api_v3&utm_medium=api_v3_business_search&utm_source=F8OOUfRx1ujSudXJ-CRTfA
11,dAW85qCwTvwsXuK0UH4t6Q,Bell Homestead National Historic Site,Museums,Brantford,CA,94 Tutela Heights Road,N3T 1A1,43.1076852,-80.2706868,https://www.yelp.com/biz/bell-homestead-national-historic-site-brantford?adjust_creative=F8OOUfRx1ujSudXJ-CRTfA&utm_campaign=yelp_api_v3&utm_medium=api_v3_business_search&utm_source=F8OOUfRx1ujSudXJ-CRTfA
12,QTzzqjXARFm0IB_aSxBmPQ,Bellevue House National Historic Site,Museums,Kingston,CA,35 Centre Street,K7L 4E6,44.223011,-76.5040817,https://www.yelp.com/biz/bellevue-house-national-historic-site-kingston?adjust_creative=F8OOUfRx1ujSudXJ-CRTfA&utm_campaign=yelp_api_v3&utm_medium=api_v3_business_search&utm_source=F8OOUfRx1ujSudXJ-CRTfA
13,HEwy1p3xhgToK2j8VH79lg,Benares Historic House,Museums,Mississauga,CA,1507 Clarkson Road,L5J 2W8,43.52753,-79.63718,https://www.yelp.com/biz/benares-historic-house-mississauga?adjust_creative=F8OOUfRx1ujSudXJ-CRTfA&utm_campaign=yelp_api_v3&utm_medium=api_v3_business_search&utm_source=F8OOUfRx1ujSudXJ-CRTfA
14,HcXKWRA96P-i4d4lXgnStg,Billings Estate Museum,Museums,Ottawa,CA,2100 Cabot St,K1H 6K1,45.3894368,-75.6724851,https://www.yelp.com/biz/billings-estate-museum-ottawa?adjust_creative=F8OOUfRx1ujSudXJ-CRTfA&utm_campaign=yelp_api_v3&utm_medium=api_v3_business_search&utm_source=F8OOUfRx1ujSudXJ-CRTfA
15,kukFiJdR5d1YvoOsdJWFAQ,Black Creek Pioneer Village,Local Flavor,Downsview,CA,1000 Murray Ross Pkwy,M3J 2P3,43.77478,-79.51804,https://www.yelp.com/biz/black-creek-pioneer-village-downsview?adjust_creative=F8OOUfRx1ujSudXJ-CRTfA&utm_campaign=yelp_api_v3&utm_medium=api_v3_business_search&utm_source=F8OOUfRx1ujSudXJ-CRTfA
16,pLjUpszqzKGwiRIwBZZ9kA,Bradley Museum,Museums,Mississauga,CA,1620 Orr Road,L5J 4T2,43.51208,-79.6114599,https://www.yelp.com/biz/bradley-museum-mississauga?adjust_creative=F8OOUfRx1ujSudXJ-CRTfA&utm_campaign=yelp_api_v3&utm_medium=api_v3_business_search&utm_source=F8OOUfRx1ujSudXJ-CRTfA
17,eet8K8x8EYvfAE0UCCGpLQ,Brockville Museum,Museums,Brockville,CA,5 Henry Street,K6V 6M4,44.5863346,-75.6866681,https://www.yelp.com/biz/brockville-museum-brockville?adjust_creative=F8OOUfRx1ujSudXJ-CRTfA&utm_campaign=yelp_api_v3&utm_medium=api_v3_business_search&utm_source=F8OOUfRx1ujSudXJ-CRTfA
18,GoQeQ8OvL1vadB__1hA8xg,Campbell House Museum,Museums,Toronto,CA,160 Queen St W,M5H 3H3,43.6509,-79.38711,https://www.yelp.com/biz/campbell-house-museum-toronto?adjust_creative=F8OOUfRx1ujSudXJ-CRTfA&utm_campaign=yelp_api_v3&utm_medium=api_v3_business_search&utm_source=F8OOUfRx1ujSudXJ-CRTfA
19,47CtZWsZubALuHY8q7Scmg,Canada Agriculture and Food Museum,Museums,Ottawa,CA,901 Prince of Wales Drive,K2C 3K1,45.387895,-75.707585,https://www.yelp.com/biz/canada-agriculture-and-food-museum-ottawa-2?adjust_creative=F8OOUfRx1ujSudXJ-CRTfA&utm_campaign=yelp_api_v3&utm_medium=api_v3_business_search&utm_source=F8OOUfRx1ujSudXJ-CRTfA
20,r7uvoLc0b_I4euHzr3aNgQ,Canada Aviation and Space Museum,Museums,Ottawa,CA,11 Aviation Parkway,K1K 4Y5,45.4581642,-75.644246,https://www.yelp.com/biz/canada-aviation-and-space-museum-ottawa?adjust_creative=F8OOUfRx1ujSudXJ-CRTfA&utm_campaign=yelp_api_v3&utm_medium=api_v3_business_search&utm_source=F8OOUfRx1ujSudXJ-CRTfA
21,Ce1deBMCGyTLng1HnAf2AQ,Canada Science and Technology Museum,Museums,Ottawa,CA,1867 St Laurent Boulevard,K1G 5A3,45.40374642,-75.61990349,https://www.yelp.com/biz/canada-science-and-technology-museum-ottawa?adjust_creative=F8OOUfRx1ujSudXJ-CRTfA&utm_campaign=yelp_api_v3&utm_medium=api_v3_business_search&utm_source=F8OOUfRx1ujSudXJ-CRTfA
22,#NAME?,Canadian Automotive Museum,Museums,Oshawa,CA,99 Simcoe Street S,L1H 4G7,43.8948331,-78.8623571,https://www.yelp.com/biz/canadian-automotive-museum-oshawa?adjust_creative=F8OOUfRx1ujSudXJ-CRTfA&utm_campaign=yelp_api_v3&utm_medium=api_v3_business_search&utm_source=F8OOUfRx1ujSudXJ-CRTfA
23,FnNlgWOU7EyGu6VCNbvYDQ,Canadian Baseball Hall of Fame and Museum,Museums,St. Marys,CA,386 Church Street S,N4X,43.2499732,-81.145233,https://www.yelp.com/biz/canadian-baseball-hall-of-fame-and-museum-st-marys?adjust_creative=F8OOUfRx1ujSudXJ-CRTfA&utm_campaign=yelp_api_v3&utm_medium=api_v3_business_search&utm_source=F8OOUfRx1ujSudXJ-CRTfA
24,7_J58LNwOaULJDOEtW_RVw,Canadian Bushpilot Heritage Centre,Museums,Sault Ste. Marie,CA,50 Pim Street,P6A 3G9,46.5067276,-84.3229769,https://www.yelp.com/biz/canadian-bushpilot-heritage-centre-sault-ste-marie?adjust_creative=F8OOUfRx1ujSudXJ-CRTfA&utm_campaign=yelp_api_v3&utm_medium=api_v3_business_search&utm_source=F8OOUfRx1ujSudXJ-CRTfA
25,Cbh1DmSM_WcjyyJ_5jJDSg,Canadian Canoe Museum,Museums,Peterborough,CA,910 Monaghan Road,K9J 5K4,44.28845,-78.33025,https://www.yelp.com/biz/canadian-canoe-museum-peterborough?adjust_creative=F8OOUfRx1ujSudXJ-CRTfA&utm_campaign=yelp_api_v3&utm_medium=api_v3_business_search&utm_source=F8OOUfRx1ujSudXJ-CRTfA
26,FoJyvCTKFYBIWMMoINFPww,Canadian Football Hall of Fame,Museums,Hamilton,CA,64 Melrose Avenue N,L8L 8C1,43.25225528,-79.83126383,https://www.yelp.com/biz/canadian-football-hall-of-fame-hamilton?adjust_creative=F8OOUfRx1ujSudXJ-CRTfA&utm_campaign=yelp_api_v3&utm_medium=api_v3_business_search&utm_source=F8OOUfRx1ujSudXJ-CRTfA
27,rfMgNtnrbQGZ8kWYp1gq6w,Canadian Historical Aircraft Assoc,Museums,Windsor,CA,2600 Airport Road,N8V 1A1,42.2683611,-82.9683634,https://www.yelp.com/biz/canadian-historical-aircraft-assoc-windsor?adjust_creative=F8OOUfRx1ujSudXJ-CRTfA&utm_campaign=yelp_api_v3&utm_medium=api_v3_business_search&utm_source=F8OOUfRx1ujSudXJ-CRTfA
28,m40tVj_Pv_8coUej_aWmig,Canadian Museum of Hindu Civilization,Museums,Richmond Hill,CA,8640 Yonge Street,L4C 6Z4,43.8382919,-79.4297293,https://www.yelp.com/biz/canadian-museum-of-hindu-civilization-richmond-hill?adjust_creative=F8OOUfRx1ujSudXJ-CRTfA&utm_campaign=yelp_api_v3&utm_medium=api_v3_business_search&utm_source=F8OOUfRx1ujSudXJ-CRTfA
29,n1YUona13b2E3zqyaTvOTQ,Canadian Museum of Nature,Museums,Ottawa,CA,240 McLeod Street,K2P 2R1,45.41271425,-75.68851456,https://www.yelp.com/biz/canadian-museum-of-nature-ottawa-3?adjust_creative=F8OOUfRx1ujSudXJ-CRTfA&utm_campaign=yelp_api_v3&utm_medium=api_v3_business_search&utm_source=F8OOUfRx1ujSudXJ-CRTfA
30,4_S8wtNZRNP4uN8fCpp0LA,Canadian War Museum,Museums,Ottawa,CA,1 Vimy Place,K1A 0M8,45.417273,-75.716904,https://www.yelp.com/biz/canadian-war-museum-ottawa?adjust_creative=F8OOUfRx1ujSudXJ-CRTfA&utm_campaign=yelp_api_v3&utm_medium=api_v3_business_search&utm_source=F8OOUfRx1ujSudXJ-CRTfA
31,ii3cy9m8uSfygj10jZ7VRw,Canadian Warplane Heritage Museum,Museums,Mount Hope,CA,9280 Airport Road,L0R 1W0,43.15996,-79.9248999,https://www.yelp.com/biz/canadian-warplane-heritage-museum-mount-hope?adjust_creative=F8OOUfRx1ujSudXJ-CRTfA&utm_campaign=yelp_api_v3&utm_medium=api_v3_business_search&utm_source=F8OOUfRx1ujSudXJ-CRTfA
32,s4c_f9WwcolJTNitq2gWpQ,Casa Loma,Museums,Toronto,CA,1 Austin Terrace,M5R 1X8,43.678142,-79.409433,https://www.yelp.com/biz/casa-loma-toronto?adjust_creative=F8OOUfRx1ujSudXJ-CRTfA&utm_campaign=yelp_api_v3&utm_medium=api_v3_business_search&utm_source=F8OOUfRx1ujSudXJ-CRTfA
33,o8jHCd0EfduS0Wrj5AQPOQ,Castle Dracula Wax Museum,Museums,Niagara Falls,CA,4933 Clifton Hill,L2G 3N5,43.09145,-79.07425,https://www.yelp.com/biz/castle-dracula-wax-museum-niagara-falls?adjust_creative=F8OOUfRx1ujSudXJ-CRTfA&utm_campaign=yelp_api_v3&utm_medium=api_v3_business_search&utm_source=F8OOUfRx1ujSudXJ-CRTfA
34,-4GDsFpVuqhl0wvlytKWJw,City of Waterloo Museum,Museums,Waterloo,CA,550 King Street N,N2L 5W6,43.4987187,-80.5298647,https://www.yelp.com/biz/city-of-waterloo-museum-waterloo?adjust_creative=F8OOUfRx1ujSudXJ-CRTfA&utm_campaign=yelp_api_v3&utm_medium=api_v3_business_search&utm_source=F8OOUfRx1ujSudXJ-CRTfA
35,EREWGwhjZ1oT7tv1L6PkdQ,Colborne Lodge,Museums,Toronto,CA,11 Colborne Lodge Drive,M6R,43.64060704,-79.46069379,https://www.yelp.com/biz/colborne-lodge-toronto?adjust_creative=F8OOUfRx1ujSudXJ-CRTfA&utm_campaign=yelp_api_v3&utm_medium=api_v3_business_search&utm_source=F8OOUfRx1ujSudXJ-CRTfA
36,qdkOW6WthYx0_c3JGtFfeQ,Collingwood Museum,Museums,Collingwood,CA,45 Saint Paul Street,L9Y 3P1,44.5023848,-80.2146287,https://www.yelp.com/biz/collingwood-museum-collingwood?adjust_creative=F8OOUfRx1ujSudXJ-CRTfA&utm_campaign=yelp_api_v3&utm_medium=api_v3_business_search&utm_source=F8OOUfRx1ujSudXJ-CRTfA
37,Q-Fv38lGcXkZKK2M0yev0w,Cumberland Heritage Village Museum,Museums,Cumberland,CA,2940 Old Montreal Road,K4C 1G3,45.517835,-75.391255,https://www.yelp.com/biz/cumberland-heritage-village-museum-cumberland?adjust_creative=F8OOUfRx1ujSudXJ-CRTfA&utm_campaign=yelp_api_v3&utm_medium=api_v3_business_search&utm_source=F8OOUfRx1ujSudXJ-CRTfA
38,vBx8QqJxrI1XH5zTjRhdNg,Dance Collection Danse,Museums,Toronto,CA,149 Church Street,M5B 1Y4,43.6532958,-79.3717524,https://www.yelp.com/biz/dance-collection-danse-toronto?adjust_creative=F8OOUfRx1ujSudXJ-CRTfA&utm_campaign=yelp_api_v3&utm_medium=api_v3_business_search&utm_source=F8OOUfRx1ujSudXJ-CRTfA
39,eDeTQHnoxQcOciIM2R9Ueg,Daredevil Gallery & Museum,Museums,Niagara Falls,CA,6170 Fallsview Boulevard,L2G 7T8,43.08507,-79.08207,https://www.yelp.com/biz/daredevil-gallery-and-museum-niagara-falls?adjust_creative=F8OOUfRx1ujSudXJ-CRTfA&utm_campaign=yelp_api_v3&utm_medium=api_v3_business_search&utm_source=F8OOUfRx1ujSudXJ-CRTfA
40,skA--ZRacPBmvzZsOkdA9Q,Diefenbunker,Museums,Ottawa,CA,3929 Carp Road,K0A 1L0,45.3550351,-76.0487411,https://www.yelp.com/biz/diefenbunker-ottawa?adjust_creative=F8OOUfRx1ujSudXJ-CRTfA&utm_campaign=yelp_api_v3&utm_medium=api_v3_business_search&utm_source=F8OOUfRx1ujSudXJ-CRTfA
41,CGZKw4EF-YYa2aH7sJP7RA,Discovery Harbour,Museums,Penetanguishene,CA,93 Jury Drive,L9M 1G1,44.799397,-79.932139,https://www.yelp.com/biz/discovery-harbour-penetanguishene?adjust_creative=F8OOUfRx1ujSudXJ-CRTfA&utm_campaign=yelp_api_v3&utm_medium=api_v3_business_search&utm_source=F8OOUfRx1ujSudXJ-CRTfA
42,0_Nn8IAauHMfCF--205pog,Doon Heritage Village,Museums,Kitchener,CA,10 Huron Road,N2P 2R7,43.4010807,-80.4355658,https://www.yelp.com/biz/doon-heritage-village-kitchener?adjust_creative=F8OOUfRx1ujSudXJ-CRTfA&utm_campaign=yelp_api_v3&utm_medium=api_v3_business_search&utm_source=F8OOUfRx1ujSudXJ-CRTfA
43,xdUyn1ETI-Rw9CveEl_Tmg,Downtown Rideau,Museums,Ottawa,CA,45 Rideau St,K1M 0Y8,45.4259787,-75.6925947,https://www.yelp.com/biz/downtown-rideau-ottawa?adjust_creative=F8OOUfRx1ujSudXJ-CRTfA&utm_campaign=yelp_api_v3&utm_medium=api_v3_business_search&utm_source=F8OOUfRx1ujSudXJ-CRTfA
44,cIV0MUAb7hlaT9P2Ys6MUg,Dundurn National Historic Site,Landmarks & Historical Buildings,Hamilton,CA,610 York Blvd,L8R 3H1,43.26853,-79.88501,https://www.yelp.com/biz/dundurn-national-historic-site-hamilton?adjust_creative=F8OOUfRx1ujSudXJ-CRTfA&utm_campaign=yelp_api_v3&utm_medium=api_v3_business_search&utm_source=F8OOUfRx1ujSudXJ-CRTfA
45,THCILCfsvspmvzy2diuv5Q,Dynamic Earth,Museums,Greater Sudbury,CA,122 Big Nickel Road,P3C 3A6,46.4738324,-81.0340385,https://www.yelp.com/biz/dynamic-earth-greater-sudbury?adjust_creative=F8OOUfRx1ujSudXJ-CRTfA&utm_campaign=yelp_api_v3&utm_medium=api_v3_business_search&utm_source=F8OOUfRx1ujSudXJ-CRTfA
46,WNxTqRXC93SHKjVDhZ3hyQ,Entomica,Museums,Sault Ste. Marie,CA,35 Canal Drive,P6A 5P4,46.5165062,-84.3480225,https://www.yelp.com/biz/entomica-sault-ste-marie-2?adjust_creative=F8OOUfRx1ujSudXJ-CRTfA&utm_campaign=yelp_api_v3&utm_medium=api_v3_business_search&utm_source=F8OOUfRx1ujSudXJ-CRTfA
47,hhZ20t1mFNKUX6R1D8jPxQ,Erchless Estate,Landmarks & Historical Buildings,Oakville,CA,8 Navy Street,L6J 2Y5,43.44198,-79.66669,https://www.yelp.com/biz/erchless-estate-oakville?adjust_creative=F8OOUfRx1ujSudXJ-CRTfA&utm_campaign=yelp_api_v3&utm_medium=api_v3_business_search&utm_source=F8OOUfRx1ujSudXJ-CRTfA
48,URBmg0U0Av_Vhu0KinREfA,Ermatinger Clergue National Historic Site,Museums,Sault Ste. Marie,CA,831 Queen Street E,P6A 2A8,46.50622,-84.32457,https://www.yelp.com/biz/ermatinger-clergue-national-historic-site-sault-ste-marie?adjust_creative=F8OOUfRx1ujSudXJ-CRTfA&utm_campaign=yelp_api_v3&utm_medium=api_v3_business_search&utm_source=F8OOUfRx1ujSudXJ-CRTfA
49,Qk_dMiJR9eqMh8XKvhOg0g,Fanshawe Pioneer Village,Museums,London,CA,2609 Fanshawe Park Road E,N5X 4A1,43.0542123,-81.1848016,https://www.yelp.com/biz/fanshawe-pioneer-village-london?adjust_creative=F8OOUfRx1ujSudXJ-CRTfA&utm_campaign=yelp_api_v3&utm_medium=api_v3_business_search&utm_source=F8OOUfRx1ujSudXJ-CRTfA
50,k6UO3-tcZmA-HrLxBFi6Mw,Fort Malden National Historic Park,Museums,Amherstburg,CA,100 Laird Avenue S,N9V 1X5,42.10813,-83.11255,https://www.yelp.com/biz/fort-malden-national-historic-park-amherstburg?adjust_creative=F8OOUfRx1ujSudXJ-CRTfA&utm_campaign=yelp_api_v3&utm_medium=api_v3_business_search&utm_source=F8OOUfRx1ujSudXJ-CRTfA
51,v1nMBWotcOMgOuR_V_wX6g,Fort William Historical Park,Museums,Thunder Bay,CA,1350 King Road,P7K 1L7,48.35302,-89.354,https://www.yelp.com/biz/fort-william-historical-park-thunder-bay?adjust_creative=F8OOUfRx1ujSudXJ-CRTfA&utm_campaign=yelp_api_v3&utm_medium=api_v3_business_search&utm_source=F8OOUfRx1ujSudXJ-CRTfA
52,4f5ae7L2BmP_GRHDoAFpBw,Fort York: Garrison Common,Museums,Toronto,CA,250 Fort York Blvd,M5V 3K9,43.6376309,-79.4048273,https://www.yelp.com/biz/fort-york-garrison-common-toronto?adjust_creative=F8OOUfRx1ujSudXJ-CRTfA&utm_campaign=yelp_api_v3&utm_medium=api_v3_business_search&utm_source=F8OOUfRx1ujSudXJ-CRTfA
53,CByAP1sW2OoRuafpHPanUg,Fulford Place,Museums,Brockville,CA,287 King Street E,K6V 1E1,44.5989493,-75.6695544,https://www.yelp.com/biz/fulford-place-brockville?adjust_creative=F8OOUfRx1ujSudXJ-CRTfA&utm_campaign=yelp_api_v3&utm_medium=api_v3_business_search&utm_source=F8OOUfRx1ujSudXJ-CRTfA
54,WJ-5wUATInG84my_exd4aQ,Gananoque Museum,Museums,Gananoque,CA,10 King Street E,K7G 1E6,44.3266319,-76.1647145,https://www.yelp.com/biz/gananoque-museum-gananoque?adjust_creative=F8OOUfRx1ujSudXJ-CRTfA&utm_campaign=yelp_api_v3&utm_medium=api_v3_business_search&utm_source=F8OOUfRx1ujSudXJ-CRTfA
55,3QxZb-zfidkNEG75XXHUOg,Gibson House Museum,Museums,North York,CA,5172 Yonge St,M2N 5P6,43.7697,-79.41467,https://www.yelp.com/biz/gibson-house-museum-north-york?adjust_creative=F8OOUfRx1ujSudXJ-CRTfA&utm_campaign=yelp_api_v3&utm_medium=api_v3_business_search&utm_source=F8OOUfRx1ujSudXJ-CRTfA
56,7lsNcNc3f1AaNVG3ZGhFJg,Glanmore National Historic Site,Museums,Belleville,CA,257 Bridge Street E,K8N 1P4,44.16725,-77.36779,https://www.yelp.com/biz/glanmore-national-historic-site-belleville?adjust_creative=F8OOUfRx1ujSudXJ-CRTfA&utm_campaign=yelp_api_v3&utm_medium=api_v3_business_search&utm_source=F8OOUfRx1ujSudXJ-CRTfA
57,kF5mO8RSISAmqI0mkuvfyA,Goulbourn Museum,Museums,Stittsville,CA,2064 Huntley Road,K2S 1B8,45.23404,-75.90554,https://www.yelp.com/biz/goulbourn-museum-stittsville?adjust_creative=F8OOUfRx1ujSudXJ-CRTfA&utm_campaign=yelp_api_v3&utm_medium=api_v3_business_search&utm_source=F8OOUfRx1ujSudXJ-CRTfA
58,Fx9_rsxH2bq2p-qe-bDnVw,Great War Flying Museum,Museums,Cheltenham,CA,13691 McLaughlin Road,L7C 2B2,43.75852311,-79.87887955,https://www.yelp.com/biz/great-war-flying-museum-cheltenham?adjust_creative=F8OOUfRx1ujSudXJ-CRTfA&utm_campaign=yelp_api_v3&utm_medium=api_v3_business_search&utm_source=F8OOUfRx1ujSudXJ-CRTfA
59,2l2AYX4lwM3-0FlCUgPHaw,Grey Roots Museum & Archive,Museums,Owen Sound,CA,102599 Grey Road 18,N4K 5N6,44.55673,-80.92547,https://www.yelp.com/biz/grey-roots-museum-and-archive-owen-sound?adjust_creative=F8OOUfRx1ujSudXJ-CRTfA&utm_campaign=yelp_api_v3&utm_medium=api_v3_business_search&utm_source=F8OOUfRx1ujSudXJ-CRTfA
60,0uYEMD1g_5e9HY3XS_emfg,Guinness Book of World Records Museum,Museums,Niagara Falls,CA,4943 Clifton Hill,L2G 3N5,43.09153,-79.07344,https://www.yelp.com/biz/guinness-book-of-world-records-museum-niagara-falls?adjust_creative=F8OOUfRx1ujSudXJ-CRTfA&utm_campaign=yelp_api_v3&utm_medium=api_v3_business_search&utm_source=F8OOUfRx1ujSudXJ-CRTfA
61,9YqPCmWSrrZulUNG_JPdwQ,Halton County Radial Railway,Museums,Milton,CA,13629 Guelph Line,L0P 1B0,43.579513,-80.1130239,https://www.yelp.com/biz/halton-county-radial-railway-milton?adjust_creative=F8OOUfRx1ujSudXJ-CRTfA&utm_campaign=yelp_api_v3&utm_medium=api_v3_business_search&utm_source=F8OOUfRx1ujSudXJ-CRTfA
62,whso0yBAN6Jy3nit3rQFUw,Hamilton Children's Museum,Children's Museums,Hamilton,CA,1072 Main Street E,L8M 1N6,43.2438511,-79.8256512,https://www.yelp.com/biz/hamilton-childrens-museum-hamilton?adjust_creative=F8OOUfRx1ujSudXJ-CRTfA&utm_campaign=yelp_api_v3&utm_medium=api_v3_business_search&utm_source=F8OOUfRx1ujSudXJ-CRTfA
63,2JieLs02McAWSFnqVtnDhA,Heritage Toronto,Tours,Toronto,CA,157 King Street E,M5C 1G9,43.65019,-79.37212,https://www.yelp.com/biz/heritage-toronto-toronto?adjust_creative=F8OOUfRx1ujSudXJ-CRTfA&utm_campaign=yelp_api_v3&utm_medium=api_v3_business_search&utm_source=F8OOUfRx1ujSudXJ-CRTfA
64,t-TLX-XEl9IiR5ohnUaQMA,HideSeek,Art Museums,Toronto,CA,1305 Dundas Street W,M6J 1X8,43.64927,-79.42581,https://www.yelp.com/biz/hideseek-toronto?adjust_creative=F8OOUfRx1ujSudXJ-CRTfA&utm_campaign=yelp_api_v3&utm_medium=api_v3_business_search&utm_source=F8OOUfRx1ujSudXJ-CRTfA
65,b4n5bAxACphznoQGQPNyQw,Historic Zion Schoolhouse,Museums,Toronto,CA,1091 Finch Avenue E,M2J,43.7901676,-79.3660131,https://www.yelp.com/biz/historic-zion-schoolhouse-toronto?adjust_creative=F8OOUfRx1ujSudXJ-CRTfA&utm_campaign=yelp_api_v3&utm_medium=api_v3_business_search&utm_source=F8OOUfRx1ujSudXJ-CRTfA
66,IRF1hPi3GuxJ-EpoEpzI7Q,Hockey Hall of Fame,Museums,Toronto,CA,Brookfield Place,M5E 1X8,43.64695062,-79.37723721,https://www.yelp.com/biz/hockey-hall-of-fame-toronto?adjust_creative=F8OOUfRx1ujSudXJ-CRTfA&utm_campaign=yelp_api_v3&utm_medium=api_v3_business_search&utm_source=F8OOUfRx1ujSudXJ-CRTfA
67,30C3XsI0WFBvH6GQRHIT6w,House Of Frankenstein,Museums,Niagara Falls,CA,4967 Clifton Hill,L2G 3N5,43.09219,-79.07514,https://www.yelp.com/biz/house-of-frankenstein-niagara-falls?adjust_creative=F8OOUfRx1ujSudXJ-CRTfA&utm_campaign=yelp_api_v3&utm_medium=api_v3_business_search&utm_source=F8OOUfRx1ujSudXJ-CRTfA
68,DHvOgI3PQkqBYvKgwxGpRw,Hutchison House Museum,Museums,Peterborough,CA,270 Brock St,K9H 2P9,44.30718,-78.32521,https://www.yelp.com/biz/hutchison-house-museum-peterborough?adjust_creative=F8OOUfRx1ujSudXJ-CRTfA&utm_campaign=yelp_api_v3&utm_medium=api_v3_business_search&utm_source=F8OOUfRx1ujSudXJ-CRTfA
69,4MZBnhXtuLP2ak5-U2pccw,Ingersoll Cheese Factory and Museum,Museums,Ingersoll,CA,290 Harris Street,N5C,43.03718,-80.86679,https://www.yelp.com/biz/ingersoll-cheese-factory-and-museum-ingersoll?adjust_creative=F8OOUfRx1ujSudXJ-CRTfA&utm_campaign=yelp_api_v3&utm_medium=api_v3_business_search&utm_source=F8OOUfRx1ujSudXJ-CRTfA
70,sC7qHSKhbUW-KGaoBbIN9g,John McKenzie House,Museums,Willowdale,CA,34 Parkview Avenue,M2N 3Y2,43.7714923,-79.4112287,https://www.yelp.com/biz/john-mckenzie-house-willowdale?adjust_creative=F8OOUfRx1ujSudXJ-CRTfA&utm_campaign=yelp_api_v3&utm_medium=api_v3_business_search&utm_source=F8OOUfRx1ujSudXJ-CRTfA
71,WAtVVUo6w4lJmb57PqREqg,Kitchener-Waterloo Art Gallery,Museums,Kitchener,CA,101 Queen Street North,N2H 2H1,43.454274,-80.48466,https://www.yelp.com/biz/kitchener-waterloo-art-gallery-kitchener?adjust_creative=F8OOUfRx1ujSudXJ-CRTfA&utm_campaign=yelp_api_v3&utm_medium=api_v3_business_search&utm_source=F8OOUfRx1ujSudXJ-CRTfA
72,75_T4Lg0DBjsDXu2tjXv_g,Lang Pioneer Village,Museums,Keene,CA,RR 3,K0L 2G0,44.274391,-78.169708,https://www.yelp.com/biz/lang-pioneer-village-keene?adjust_creative=F8OOUfRx1ujSudXJ-CRTfA&utm_campaign=yelp_api_v3&utm_medium=api_v3_business_search&utm_source=F8OOUfRx1ujSudXJ-CRTfA
73,L6CKNlWMr00-Qz0n1Q3ClA,London Regional Children's Museum,Children's Museums,London,CA,21 Wharncliffe Road S,N6J 4G5,42.979359,-81.2625761,https://www.yelp.com/biz/london-regional-childrens-museum-london?adjust_creative=F8OOUfRx1ujSudXJ-CRTfA&utm_campaign=yelp_api_v3&utm_medium=api_v3_business_search&utm_source=F8OOUfRx1ujSudXJ-CRTfA
74,Av7sXcVsxtu7TrQ7L2fpWg,Louis Tussaud's Waxworks,Museums,Niagara Falls,CA,5709 Victoria Ave,L2G 3L5,43.09256,-79.07601,https://www.yelp.com/biz/louis-tussauds-waxworks-niagara-falls?adjust_creative=F8OOUfRx1ujSudXJ-CRTfA&utm_campaign=yelp_api_v3&utm_medium=api_v3_business_search&utm_source=F8OOUfRx1ujSudXJ-CRTfA
75,2KJ0HDa_KqmTfxc1Y_xMEA,Mackenzie House,Museums,Toronto,CA,82 Bond Street,M5B 1X2,43.6556799,-79.37841,https://www.yelp.com/biz/mackenzie-house-toronto?adjust_creative=F8OOUfRx1ujSudXJ-CRTfA&utm_campaign=yelp_api_v3&utm_medium=api_v3_business_search&utm_source=F8OOUfRx1ujSudXJ-CRTfA
76,U1kTJWkmjBli1uV1rkIGPA,MacPherson House,Museums,Napanee,CA,180 Elizabeth Street,K7R 1B5,44.2528,-76.94566,https://www.yelp.com/biz/macpherson-house-napanee?adjust_creative=F8OOUfRx1ujSudXJ-CRTfA&utm_campaign=yelp_api_v3&utm_medium=api_v3_business_search&utm_source=F8OOUfRx1ujSudXJ-CRTfA
77,bMnS8hx4CNjF5NTvHA6JCg,Mariners Park Museum,Museums,Milford,CA,2065 County Road 13,K0K 2P0,43.92224425,-77.0526683,https://www.yelp.com/biz/mariners-park-museum-milford?adjust_creative=F8OOUfRx1ujSudXJ-CRTfA&utm_campaign=yelp_api_v3&utm_medium=api_v3_business_search&utm_source=F8OOUfRx1ujSudXJ-CRTfA
78,wrbKfIdC1Wq8pWB_qOipsw,Markham Museum,Museums,Markham,CA,9350 Markham Road,L3P 3J3,43.8937944,-79.2646439,https://www.yelp.com/biz/markham-museum-markham-6?adjust_creative=F8OOUfRx1ujSudXJ-CRTfA&utm_campaign=yelp_api_v3&utm_medium=api_v3_business_search&utm_source=F8OOUfRx1ujSudXJ-CRTfA
79,oq4agkRxwjmYQqYIIpnucQ,Matawa Museum,Museums,Mattawa,CA,285 First Street,P0H 1V0,46.31990682,-78.70938163,https://www.yelp.com/biz/matawa-museum-mattawa?adjust_creative=F8OOUfRx1ujSudXJ-CRTfA&utm_campaign=yelp_api_v3&utm_medium=api_v3_business_search&utm_source=F8OOUfRx1ujSudXJ-CRTfA
80,OXDU0kN6YA4543dnf3u0Hg,Military Communications And Electronics Museum,Museums,Kingston,CA,95 Craftsman Boulevard,K0H 2Y0,44.2422295,-76.4397964,https://www.yelp.com/biz/military-communications-and-electronics-museum-kingston?adjust_creative=F8OOUfRx1ujSudXJ-CRTfA&utm_campaign=yelp_api_v3&utm_medium=api_v3_business_search&utm_source=F8OOUfRx1ujSudXJ-CRTfA
81,WjNjmkvoywFlP_f6oVp0ug,Montgomery's Inn Museum,Museums,Etobicoke,CA,4709 Dundas Street W,M9A 1A8,43.65168,-79.52562,https://www.yelp.com/biz/montgomerys-inn-museum-etobicoke?adjust_creative=F8OOUfRx1ujSudXJ-CRTfA&utm_campaign=yelp_api_v3&utm_medium=api_v3_business_search&utm_source=F8OOUfRx1ujSudXJ-CRTfA
82,S02EEH8ROllNgybpP3SCLA,Movieland Wax Museum Of The Stars,Museums,Niagara Falls,CA,4808 4950 Clifton Hill,L2G 3N5,43.09125926,-79.07468126,https://www.yelp.com/biz/movieland-wax-museum-of-the-stars-niagara-falls?adjust_creative=F8OOUfRx1ujSudXJ-CRTfA&utm_campaign=yelp_api_v3&utm_medium=api_v3_business_search&utm_source=F8OOUfRx1ujSudXJ-CRTfA
83,ADjg65TLo-AUO47G3Gs7pw,Mus√©e Canadien de l'Histoire,Museums,Gatineau,CA,100 Laurier Street,K1A 0M8,45.4303566,-75.7098106,https://www.yelp.com/biz/mus%C3%A9e-canadien-de-l-histoire-gatineau-4?adjust_creative=F8OOUfRx1ujSudXJ-CRTfA&utm_campaign=yelp_api_v3&utm_medium=api_v3_business_search&utm_source=F8OOUfRx1ujSudXJ-CRTfA
84,SmKTxCveFBHjPE_mpPcMJA,Museum London,Art Galleries,London,CA,421 Ridout Street North,N6A 5H4,42.9826,-81.2548,https://www.yelp.com/biz/museum-london-london?adjust_creative=F8OOUfRx1ujSudXJ-CRTfA&utm_campaign=yelp_api_v3&utm_medium=api_v3_business_search&utm_source=F8OOUfRx1ujSudXJ-CRTfA
85,AdaiTsymzC4XjGU7sl0OMw,Museum Of Contemporary Art,Museums,Toronto,CA,158 Sterling Road,M6R 2B2,43.65455719,-79.44513615,https://www.yelp.com/biz/museum-of-contemporary-art-toronto?adjust_creative=F8OOUfRx1ujSudXJ-CRTfA&utm_campaign=yelp_api_v3&utm_medium=api_v3_business_search&utm_source=F8OOUfRx1ujSudXJ-CRTfA
86,QRJhQQzaF1w5rYmYUj_vew,Museum of Health Care,Museums,Kingston,CA,32 George Street,K7L 2V5,44.2238007,-76.492157,https://www.yelp.com/biz/museum-of-health-care-kingston?adjust_creative=F8OOUfRx1ujSudXJ-CRTfA&utm_campaign=yelp_api_v3&utm_medium=api_v3_business_search&utm_source=F8OOUfRx1ujSudXJ-CRTfA
87,KfCG6vodgMcFtm0DgUnRog,Museum of Illusions,Museums,Toronto,CA,132 Front Street E,M5A 1E2,43.650114,-79.369661,https://www.yelp.com/biz/museum-of-illusions-toronto-2?adjust_creative=F8OOUfRx1ujSudXJ-CRTfA&utm_campaign=yelp_api_v3&utm_medium=api_v3_business_search&utm_source=F8OOUfRx1ujSudXJ-CRTfA
88,fW_a8mCkgeGGDsXq2Zzj0Q,Museum of Ontario Archaeology,Museums,London,CA,1600 Attawandaron Road,N6G 3M6,43.01355,-81.3055,https://www.yelp.com/biz/museum-of-ontario-archaeology-london?adjust_creative=F8OOUfRx1ujSudXJ-CRTfA&utm_campaign=yelp_api_v3&utm_medium=api_v3_business_search&utm_source=F8OOUfRx1ujSudXJ-CRTfA
89,4blobzWthmBJSr-RiEdEHw,MZTV Museum of Television,Museums,Toronto,CA,64 Jefferson Avenue,M6K 1Y4,43.63764,-79.42165,https://www.yelp.com/biz/mztv-museum-of-television-toronto?adjust_creative=F8OOUfRx1ujSudXJ-CRTfA&utm_campaign=yelp_api_v3&utm_medium=api_v3_business_search&utm_source=F8OOUfRx1ujSudXJ-CRTfA
90,Vg2tLR5zeP1IT2dBkz_h6A,National Air Force Museum of Canada,Museums,Trenton,CA,220 RCAF Road,K0K 3W0,44.1158476,-77.5507476,https://www.yelp.com/biz/national-air-force-museum-of-canada-trenton?adjust_creative=F8OOUfRx1ujSudXJ-CRTfA&utm_campaign=yelp_api_v3&utm_medium=api_v3_business_search&utm_source=F8OOUfRx1ujSudXJ-CRTfA
91,I---RRP6W6mcrslHoZDU6w,National Gallery of Canada,Art Galleries,Ottawa,CA,380 Sussex Drive,K1N 9N4,45.429585,-75.698958,https://www.yelp.com/biz/national-gallery-of-canada-ottawa?adjust_creative=F8OOUfRx1ujSudXJ-CRTfA&utm_campaign=yelp_api_v3&utm_medium=api_v3_business_search&utm_source=F8OOUfRx1ujSudXJ-CRTfA
92,eCHTkQm28rYGCQ5CYASdsw,Nepean Museum,Museums,Nepean,CA,16 Rowley Ave,K2G 1L9,45.34896,-75.74181,https://www.yelp.com/biz/nepean-museum-nepean?adjust_creative=F8OOUfRx1ujSudXJ-CRTfA&utm_campaign=yelp_api_v3&utm_medium=api_v3_business_search&utm_source=F8OOUfRx1ujSudXJ-CRTfA
93,cgwfPuTdtoKmFcgDzpcfLA,Niagara Falls History Museum,Museums,Niagara Falls,CA,5810 Ferry Street,L2G 1S8,43.10114172,-79.07346094,https://www.yelp.com/biz/niagara-falls-history-museum-niagara-falls?adjust_creative=F8OOUfRx1ujSudXJ-CRTfA&utm_campaign=yelp_api_v3&utm_medium=api_v3_business_search&utm_source=F8OOUfRx1ujSudXJ-CRTfA
94,#NAME?,Niagara Military Museum,Museums,Niagara Falls,CA,5049 Victoria Avenue,L2E 4E2,43.10113,-79.07378,https://www.yelp.com/biz/niagara-military-museum-niagara-falls?adjust_creative=F8OOUfRx1ujSudXJ-CRTfA&utm_campaign=yelp_api_v3&utm_medium=api_v3_business_search&utm_source=F8OOUfRx1ujSudXJ-CRTfA
95,AC8g_13otKGrZkBQox1XHg,Oakville Galleries,Museums,Oakville,CA,1306 Lakeshore Road E,L6J 1L6,43.46117413,-79.64761734,https://www.yelp.com/biz/oakville-galleries-oakville?adjust_creative=F8OOUfRx1ujSudXJ-CRTfA&utm_campaign=yelp_api_v3&utm_medium=api_v3_business_search&utm_source=F8OOUfRx1ujSudXJ-CRTfA
96,MC7tEdDbz_2bs2TuDxZg9w,Oakville Galleries at Centennial Square,Art Galleries,Oakville,CA,120 Navy Street,L6J,43.4443661,-79.6706036,https://www.yelp.com/biz/oakville-galleries-at-centennial-square-oakville?adjust_creative=F8OOUfRx1ujSudXJ-CRTfA&utm_campaign=yelp_api_v3&utm_medium=api_v3_business_search&utm_source=F8OOUfRx1ujSudXJ-CRTfA
97,6YiRQ8jn5tOsEu3etBddhg,Oil Museum Of Canada,Museums,Oil Springs,CA,2423 Kelly Rd,N0N 1P0,42.77331,-82.12089,https://www.yelp.com/biz/oil-museum-of-canada-oil-springs?adjust_creative=F8OOUfRx1ujSudXJ-CRTfA&utm_campaign=yelp_api_v3&utm_medium=api_v3_business_search&utm_source=F8OOUfRx1ujSudXJ-CRTfA
98,rdEcwG3ik47K1Bw3wXnJyQ,Ojibwa Submarine,Museums,Port Burwell,CA,3 Pitt Street,N0J 1T0,42.6462807,-80.80776226,https://www.yelp.com/biz/ojibwa-submarine-port-burwell?adjust_creative=F8OOUfRx1ujSudXJ-CRTfA&utm_campaign=yelp_api_v3&utm_medium=api_v3_business_search&utm_source=F8OOUfRx1ujSudXJ-CRTfA
99,6PIh9T26YUiGxfKKad_zog,Ontario Regiment Museum,Museums,Oshawa,CA,1000 Stevenson Road N,L1J 5P5,43.91855411,-78.89180638,https://www.yelp.com/biz/ontario-regiment-museum-oshawa?adjust_creative=F8OOUfRx1ujSudXJ-CRTfA&utm_campaign=yelp_api_v3&utm_medium=api_v3_business_search&utm_source=F8OOUfRx1ujSudXJ-CRTfA
100,AGLbnhGppqH7P8N6e02kZw,Ontario Science Centre,Museums,Toronto,CA,770 Don Mills Road,M3C 1T3,43.7167223,-79.33887711,https://www.yelp.com/biz/ontario-science-centre-toronto?adjust_creative=F8OOUfRx1ujSudXJ-CRTfA&utm_campaign=yelp_api_v3&utm_medium=api_v3_business_search&utm_source=F8OOUfRx1ujSudXJ-CRTfA
101,7APja9hvpbrcIy7lSgzubg,Ottawa Insectarium,Museums,Ottawa,CA,71 Sparks Street,K1P 5A5,45.42343,-75.69698,https://www.yelp.com/biz/ottawa-insectarium-ottawa?adjust_creative=F8OOUfRx1ujSudXJ-CRTfA&utm_campaign=yelp_api_v3&utm_medium=api_v3_business_search&utm_source=F8OOUfRx1ujSudXJ-CRTfA
102,PqMgrLy41r-R-8qnOE1Xxg,Parc Des Ancres,Museums,Pointe-des-Cascades,CA,52 Chemin Du Fleuve,J0P 1M0,45.3306427,-73.9666672,https://www.yelp.com/biz/parc-des-ancres-pointe-des-cascades?adjust_creative=F8OOUfRx1ujSudXJ-CRTfA&utm_campaign=yelp_api_v3&utm_medium=api_v3_business_search&utm_source=F8OOUfRx1ujSudXJ-CRTfA
103,TjVLF9_IIIPawkcCcveh0A,Parkwood Estate,Museums,Oshawa,CA,270 Simcoe Street North,L1G 4T5,43.904726,-78.867621,https://www.yelp.com/biz/parkwood-estate-oshawa?adjust_creative=F8OOUfRx1ujSudXJ-CRTfA&utm_campaign=yelp_api_v3&utm_medium=api_v3_business_search&utm_source=F8OOUfRx1ujSudXJ-CRTfA
104,v63iFqSQcYbZ-rK6PHLT1Q,Parliament Interpretive Centre,Museums,Toronto,CA,265 Front Street E,M5A 1G1,43.6511697,-79.3637298,https://www.yelp.com/biz/parliament-interpretive-centre-toronto?adjust_creative=F8OOUfRx1ujSudXJ-CRTfA&utm_campaign=yelp_api_v3&utm_medium=api_v3_business_search&utm_source=F8OOUfRx1ujSudXJ-CRTfA
105,NQiwdBycPqp3HQd0-WvdRw,Peel Art Gallery Museum + Archives,Museums,Brampton,CA,9 Wellington Street E,L6W 1Y1,43.68476941,-79.75782037,https://www.yelp.com/biz/peel-art-gallery-museum-archives-brampton?adjust_creative=F8OOUfRx1ujSudXJ-CRTfA&utm_campaign=yelp_api_v3&utm_medium=api_v3_business_search&utm_source=F8OOUfRx1ujSudXJ-CRTfA
106,PSEhoJgc1VwhZDkBIlkSUA,Penitentiary Museum,Museums,Kingston,CA,555 King Street W,K7M 2E6,44.22155413,-76.51385384,https://www.yelp.com/biz/penitentiary-museum-kingston?adjust_creative=F8OOUfRx1ujSudXJ-CRTfA&utm_campaign=yelp_api_v3&utm_medium=api_v3_business_search&utm_source=F8OOUfRx1ujSudXJ-CRTfA
107,6cLLvh912Foyy45yMFnl_A,Perth Museum,Museums,Perth,CA,11 Gore Street E,K7H 1H4,44.90114,-76.25069,https://www.yelp.com/biz/perth-museum-perth?adjust_creative=F8OOUfRx1ujSudXJ-CRTfA&utm_campaign=yelp_api_v3&utm_medium=api_v3_business_search&utm_source=F8OOUfRx1ujSudXJ-CRTfA
108,Ks_CWEo3y-fxabbwuvhwNA,Peterborough Museum & Archives,Museums,Peterborough,CA,300 Hunter St. E.,K9H,44.3096324,-78.3030583,https://www.yelp.com/biz/peterborough-museum-and-archives-peterborough?adjust_creative=F8OOUfRx1ujSudXJ-CRTfA&utm_campaign=yelp_api_v3&utm_medium=api_v3_business_search&utm_source=F8OOUfRx1ujSudXJ-CRTfA
109,1v1Hf1cOmJrYgjJN0m31pg,Pickering Museum Village,Museums,Greenwood,CA,2365 Concession Road 6,L0L 1H0,43.924929,-79.071373,https://www.yelp.com/biz/pickering-museum-village-greenwood?adjust_creative=F8OOUfRx1ujSudXJ-CRTfA&utm_campaign=yelp_api_v3&utm_medium=api_v3_business_search&utm_source=F8OOUfRx1ujSudXJ-CRTfA
110,kk8zrSNReDiLRPpmEvegSA,Pinhey's Point,Museums,"Dunrobin, ON",CA,270 Pinhey's Point Road,K0A 1T0,45.43825028,-75.95248328,https://www.yelp.com/biz/pinheys-point-dunrobin-on?adjust_creative=F8OOUfRx1ujSudXJ-CRTfA&utm_campaign=yelp_api_v3&utm_medium=api_v3_business_search&utm_source=F8OOUfRx1ujSudXJ-CRTfA
111,F9d_0hkJodk_mjcVmfuKrg,Redpath Sugar Museum,Museums,Toronto,CA,95 Queens Quay E,M5E 1L7,43.64255,-79.37036,https://www.yelp.com/biz/redpath-sugar-museum-toronto?adjust_creative=F8OOUfRx1ujSudXJ-CRTfA&utm_campaign=yelp_api_v3&utm_medium=api_v3_business_search&utm_source=F8OOUfRx1ujSudXJ-CRTfA
112,8GQXL5Ji_z-3b1HiIThJbg,Ripley's Believe It or Not!,Museums,Niagara Falls,CA,4960 Clifton Hill,L2G 3N4,43.089538,-79.0772219,https://www.yelp.com/biz/ripleys-believe-it-or-not-niagara-falls?adjust_creative=F8OOUfRx1ujSudXJ-CRTfA&utm_campaign=yelp_api_v3&utm_medium=api_v3_business_search&utm_source=F8OOUfRx1ujSudXJ-CRTfA
113,AfxE6AMM9kcVybCFyQr2YA,Rock Legends Wax Museum,Museums,Niagara Falls,CA,5020 Centre Street,L2G 3N7,43.09214782,-79.07672893,https://www.yelp.com/biz/rock-legends-wax-museum-niagara-falls?adjust_creative=F8OOUfRx1ujSudXJ-CRTfA&utm_campaign=yelp_api_v3&utm_medium=api_v3_business_search&utm_source=F8OOUfRx1ujSudXJ-CRTfA
114,g3t2AQQVT2tWD64Huu7xVA,Royal Ontario Museum,Museums,Toronto,CA,100 Queen's Park,M5S 2C6,43.66824413,-79.39476013,https://www.yelp.com/biz/royal-ontario-museum-toronto?adjust_creative=F8OOUfRx1ujSudXJ-CRTfA&utm_campaign=yelp_api_v3&utm_medium=api_v3_business_search&utm_source=F8OOUfRx1ujSudXJ-CRTfA
115,7ZqX7x8KM4PJuFHO__C3zg,Sainte-Marie Among The Hurons,Museums,Midland,CA,16164 Ontario 12,L4R 5E3,44.73374748,-79.84438419,https://www.yelp.com/biz/sainte-marie-among-the-hurons-midland?adjust_creative=F8OOUfRx1ujSudXJ-CRTfA&utm_campaign=yelp_api_v3&utm_medium=api_v3_business_search&utm_source=F8OOUfRx1ujSudXJ-CRTfA
116,l01IwEcBT2cqdzBneR0uAA,Sault Ste Marie Museum,Museums,Sault Ste. Marie,CA,690 Queen Street E,P6A 2A4,46.508,-84.32791,https://www.yelp.com/biz/sault-ste-marie-museum-sault-ste-marie?adjust_creative=F8OOUfRx1ujSudXJ-CRTfA&utm_campaign=yelp_api_v3&utm_medium=api_v3_business_search&utm_source=F8OOUfRx1ujSudXJ-CRTfA
117,sTjebCCSeA3e5-82ToYE5g,Scarborough Museum,Museums,Scarborough,CA,1007 Brimley Road,M1P,43.7590663,-79.2571502,https://www.yelp.com/biz/scarborough-museum-scarborough?adjust_creative=F8OOUfRx1ujSudXJ-CRTfA&utm_campaign=yelp_api_v3&utm_medium=api_v3_business_search&utm_source=F8OOUfRx1ujSudXJ-CRTfA
118,1tViAAuWzCj4LOT50dwhuQ,Scugog Shores Historical Museum,Museums,Port Perry,CA,16210 Island Road,L9L 1B4,44.11231,-78.92015,https://www.yelp.com/biz/scugog-shores-historical-museum-port-perry?adjust_creative=F8OOUfRx1ujSudXJ-CRTfA&utm_campaign=yelp_api_v3&utm_medium=api_v3_business_search&utm_source=F8OOUfRx1ujSudXJ-CRTfA
119,IkF3EG9oVJBe8FvjY6C3XA,Spadina Historic House Museum,Museums,Toronto,CA,285 Spadina Road,M5R 2V5,43.67903,-79.4082899,https://www.yelp.com/biz/spadina-historic-house-museum-toronto?adjust_creative=F8OOUfRx1ujSudXJ-CRTfA&utm_campaign=yelp_api_v3&utm_medium=api_v3_business_search&utm_source=F8OOUfRx1ujSudXJ-CRTfA
120,1YzlGrZrwilSBdXRoMjy4A,St Catharines Museum & Welland Canal Centre,Museums,St Catharines,CA,1932 Welland Canals Parkway,L2R 7K6,43.15592,-79.19464,https://www.yelp.com/biz/st-catharines-museum-and-welland-canal-centre-st-catharines-2?adjust_creative=F8OOUfRx1ujSudXJ-CRTfA&utm_campaign=yelp_api_v3&utm_medium=api_v3_business_search&utm_source=F8OOUfRx1ujSudXJ-CRTfA
121,G_G0zMxS7crM05EsuGERyQ,St. Jacobs & Aberfoyle Model Railway,Museums,St Jacobs,CA,1440 King Street N,N0B 2N0,43.53998577,-80.55191949,https://www.yelp.com/biz/st-jacobs-and-aberfoyle-model-railway-st-jacobs?adjust_creative=F8OOUfRx1ujSudXJ-CRTfA&utm_campaign=yelp_api_v3&utm_medium=api_v3_business_search&utm_source=F8OOUfRx1ujSudXJ-CRTfA
122,IrapvV_BlsOt-Jlt2SNUPw,Stones 'n Bones Museum,Museums,Sarnia,CA,223 Christina Street N,N7T 5V1,42.9740033,-82.4069505,https://www.yelp.com/biz/stones-n-bones-museum-sarnia?adjust_creative=F8OOUfRx1ujSudXJ-CRTfA&utm_campaign=yelp_api_v3&utm_medium=api_v3_business_search&utm_source=F8OOUfRx1ujSudXJ-CRTfA
123,VtIJ1aB94K1QloOgpgP-Uw,Sugarbowl Park,Parks,Fort Erie,CA,474 Central Ave,L2A 3T7,42.92054653,-78.9169844,https://www.yelp.com/biz/sugarbowl-park-fort-erie?adjust_creative=F8OOUfRx1ujSudXJ-CRTfA&utm_campaign=yelp_api_v3&utm_medium=api_v3_business_search&utm_source=F8OOUfRx1ujSudXJ-CRTfA
124,6TSzso4MB_tEx-QWn012wA,Sun Life Financial Museum + Arts Pass,Museums,Toronto,CA,789 Yonge Street,M4W 2G8,43.6718788,-79.3866272,https://www.yelp.com/biz/sun-life-financial-museum-arts-pass-toronto-2?adjust_creative=F8OOUfRx1ujSudXJ-CRTfA&utm_campaign=yelp_api_v3&utm_medium=api_v3_business_search&utm_source=F8OOUfRx1ujSudXJ-CRTfA
125,AvdbEAH3VCoHt3JkcFh_Tw,Textile Museum of Canada,Museums,Toronto,CA,55 Centre Ave,M5G 2H5,43.65529341,-79.38429623,https://www.yelp.com/biz/textile-museum-of-canada-toronto?adjust_creative=F8OOUfRx1ujSudXJ-CRTfA&utm_campaign=yelp_api_v3&utm_medium=api_v3_business_search&utm_source=F8OOUfRx1ujSudXJ-CRTfA
126,sYGRkA52n-2sI2rkDJfMqA,The Aga Khan Museum,Museums,Toronto,CA,77 Wynford Drive,M3C 1K1,43.72539,-79.33229,https://www.yelp.com/biz/the-aga-khan-museum-toronto?adjust_creative=F8OOUfRx1ujSudXJ-CRTfA&utm_campaign=yelp_api_v3&utm_medium=api_v3_business_search&utm_source=F8OOUfRx1ujSudXJ-CRTfA
127,_M--1pHhyDlMNQRE9971ng,The Bata Shoe Museum,Museums,Toronto,CA,327 Bloor Street W,M5S 1W7,43.66723,-79.40011,https://www.yelp.com/biz/the-bata-shoe-museum-toronto?adjust_creative=F8OOUfRx1ujSudXJ-CRTfA&utm_campaign=yelp_api_v3&utm_medium=api_v3_business_search&utm_source=F8OOUfRx1ujSudXJ-CRTfA
128,6LnsDavYpTQn8UOa5WnFXQ,The Big Nickel,Tours,Greater Sudbury,CA,122 big nickel road,P3C 3A6,46.4734879,-81.0357971,https://www.yelp.com/biz/the-big-nickel-greater-sudbury?adjust_creative=F8OOUfRx1ujSudXJ-CRTfA&utm_campaign=yelp_api_v3&utm_medium=api_v3_business_search&utm_source=F8OOUfRx1ujSudXJ-CRTfA
129,uOptnSobMPWbKJ0mOcr0FQ,The Bytown Museum,Museums,Ottawa,CA,1 Canal Lane,K1P 1L1,45.42581914,-75.69766357,https://www.yelp.com/biz/the-bytown-museum-ottawa-2?adjust_creative=F8OOUfRx1ujSudXJ-CRTfA&utm_campaign=yelp_api_v3&utm_medium=api_v3_business_search&utm_source=F8OOUfRx1ujSudXJ-CRTfA
130,mLWqeL_v2CNR4I5E7SBjJA,The Coffee Station,Museums,Gravenhurst,CA,150 Second Avenue,P1P 1H4,44.92014029,-79.37073727,https://www.yelp.com/biz/the-coffee-station-gravenhurst?adjust_creative=F8OOUfRx1ujSudXJ-CRTfA&utm_campaign=yelp_api_v3&utm_medium=api_v3_business_search&utm_source=F8OOUfRx1ujSudXJ-CRTfA
131,Qplxmp2jCy5l951UcM1ovg,The Design Exchange,Museums,Toronto,CA,Toronto Dominion Centre,M5K 1B2,43.65092876,-79.38490558,https://www.yelp.com/biz/the-design-exchange-toronto?adjust_creative=F8OOUfRx1ujSudXJ-CRTfA&utm_campaign=yelp_api_v3&utm_medium=api_v3_business_search&utm_source=F8OOUfRx1ujSudXJ-CRTfA
132,zFrI_uZ-FcR2HyRLi_tDlA,The Fun House,Museums,Niagara Falls,CA,4943 Clifton Hill,L2G 3N5,43.09153,-79.07344,https://www.yelp.com/biz/the-fun-house-niagara-falls?adjust_creative=F8OOUfRx1ujSudXJ-CRTfA&utm_campaign=yelp_api_v3&utm_medium=api_v3_business_search&utm_source=F8OOUfRx1ujSudXJ-CRTfA
133,ptlFWGYV5lPiXKFRWlblIw,The Gardiner Museum,Museums,Toronto,CA,111 Queen's Park,M5S 2C7,43.66811506,-79.39294207,https://www.yelp.com/biz/the-gardiner-museum-toronto?adjust_creative=F8OOUfRx1ujSudXJ-CRTfA&utm_campaign=yelp_api_v3&utm_medium=api_v3_business_search&utm_source=F8OOUfRx1ujSudXJ-CRTfA
134,Mn_aHI7AFbSb-3QdDEwrSg,The Museum,Museums,Kitchener,CA,10 King Street W,N2H 2G8,43.4500784,-80.4895587,https://www.yelp.com/biz/the-museum-kitchener-2?adjust_creative=F8OOUfRx1ujSudXJ-CRTfA&utm_campaign=yelp_api_v3&utm_medium=api_v3_business_search&utm_source=F8OOUfRx1ujSudXJ-CRTfA
135,omSo3K6G4N5BgtDYuJ_GBw,The Niagara Apothecary,Museums,Niagara-on-the-Lake,CA,5 Queen Street,L0S 1J0,43.25502,-79.07093,https://www.yelp.com/biz/the-niagara-apothecary-niagara-on-the-lake?adjust_creative=F8OOUfRx1ujSudXJ-CRTfA&utm_campaign=yelp_api_v3&utm_medium=api_v3_business_search&utm_source=F8OOUfRx1ujSudXJ-CRTfA
136,GEaaln74PcfnHTWbumY9HA,The Robert McLaughlin Gallery,Museums,Oshawa,CA,Civic Centre,L1H 3Z3,43.8950147,-78.8657042,https://www.yelp.com/biz/the-robert-mclaughlin-gallery-oshawa?adjust_creative=F8OOUfRx1ujSudXJ-CRTfA&utm_campaign=yelp_api_v3&utm_medium=api_v3_business_search&utm_source=F8OOUfRx1ujSudXJ-CRTfA
137,6MrXNF2wpp-oJ_i_dAfKrQ,The Tree Museum,Museums,Gravenhurst,CA,1634 Doe Lake Road,P1P 1R3,44.92122,-79.26755,https://www.yelp.com/biz/the-tree-museum-gravenhurst?adjust_creative=F8OOUfRx1ujSudXJ-CRTfA&utm_campaign=yelp_api_v3&utm_medium=api_v3_business_search&utm_source=F8OOUfRx1ujSudXJ-CRTfA
138,bZca_9kpdewVR9EppfXktQ,Tiny Town,Children's Museums,Woodbridge,CA,5875 Highway 7,L4L 1T9,43.7738481,-79.6176777,https://www.yelp.com/biz/tiny-town-woodbridge?adjust_creative=F8OOUfRx1ujSudXJ-CRTfA&utm_campaign=yelp_api_v3&utm_medium=api_v3_business_search&utm_source=F8OOUfRx1ujSudXJ-CRTfA
139,7ly7WxOK_ujPxCfx19KzZw,Todmorden Mills Heritage Site,Venues & Event Spaces,Toronto,CA,67 Pottery Rd,M4K 2B9,43.68636,-79.36029,https://www.yelp.com/biz/todmorden-mills-heritage-site-toronto?adjust_creative=F8OOUfRx1ujSudXJ-CRTfA&utm_campaign=yelp_api_v3&utm_medium=api_v3_business_search&utm_source=F8OOUfRx1ujSudXJ-CRTfA
140,T1XfZmOftiK16Ua08974bw,Tom Thomson Memorial Gallery,Museums,Owen Sound,CA,840 First Avenue W,N4K 4K4,44.56441,-80.94514,https://www.yelp.com/biz/tom-thomson-memorial-gallery-owen-sound?adjust_creative=F8OOUfRx1ujSudXJ-CRTfA&utm_campaign=yelp_api_v3&utm_medium=api_v3_business_search&utm_source=F8OOUfRx1ujSudXJ-CRTfA
141,oz4YTqzGLYRzV0lSMDaEEQ,Toronto Police Museum,Museums,Toronto,CA,40 College St,M5G 2J3,43.66135,-79.3851,https://www.yelp.com/biz/toronto-police-museum-toronto?adjust_creative=F8OOUfRx1ujSudXJ-CRTfA&utm_campaign=yelp_api_v3&utm_medium=api_v3_business_search&utm_source=F8OOUfRx1ujSudXJ-CRTfA
142,aPDA7_ioAYYyH5VtzQcvsA,Toronto Railway Museum,Museums,Toronto,CA,255 Bremner Boulevard,M5V 3M9,43.640834,-79.385948,https://www.yelp.com/biz/toronto-railway-museum-toronto?adjust_creative=F8OOUfRx1ujSudXJ-CRTfA&utm_campaign=yelp_api_v3&utm_medium=api_v3_business_search&utm_source=F8OOUfRx1ujSudXJ-CRTfA
143,S1zyBXsLEYZY6BWExNx7hw,Toronto's First Post Office & Museum,Post Offices,Toronto,CA,260 Adelaide Street E,M5A 1N1,43.65191,-79.3705,https://www.yelp.com/biz/torontos-first-post-office-and-museum-toronto?adjust_creative=F8OOUfRx1ujSudXJ-CRTfA&utm_campaign=yelp_api_v3&utm_medium=api_v3_business_search&utm_source=F8OOUfRx1ujSudXJ-CRTfA
144,rDUPazgUvtE7Jx-L9t0JMw,Uncle Tom's Cabin Historic Site,Museums,Dresden,CA,29251 Uncle Toms Road,N0P 1M0,42.58512,-82.19606,https://www.yelp.com/biz/uncle-toms-cabin-historic-site-dresden?adjust_creative=F8OOUfRx1ujSudXJ-CRTfA&utm_campaign=yelp_api_v3&utm_medium=api_v3_business_search&utm_source=F8OOUfRx1ujSudXJ-CRTfA
145,VsMuF6-QS8wPKCYPWN8Y0Q,Victoria Memorial Square,Museums,Toronto,CA,Wellington W and Portland,M5V,43.64305,-79.39949,https://www.yelp.com/biz/victoria-memorial-square-toronto?adjust_creative=F8OOUfRx1ujSudXJ-CRTfA&utm_campaign=yelp_api_v3&utm_medium=api_v3_business_search&utm_source=F8OOUfRx1ujSudXJ-CRTfA
146,NwP2g9zInKcyrIqWf8JwnA,Waterloo Region Museum,Museums,Kitchener,CA,10 Huron Road,N2P 2R7,43.4010807,-80.4355658,https://www.yelp.com/biz/waterloo-region-museum-kitchener?adjust_creative=F8OOUfRx1ujSudXJ-CRTfA&utm_campaign=yelp_api_v3&utm_medium=api_v3_business_search&utm_source=F8OOUfRx1ujSudXJ-CRTfA
147,eONw2Ic3TlkPf-ahQA_Fzg,Wheelers Pancake House And Sugar Camp,Museums,McDonalds Corners,CA,1001 Highland Line,K0G 1M0,44.92783,-76.53709,https://www.yelp.com/biz/wheelers-pancake-house-and-sugar-camp-mcdonalds-corners?adjust_creative=F8OOUfRx1ujSudXJ-CRTfA&utm_campaign=yelp_api_v3&utm_medium=api_v3_business_search&utm_source=F8OOUfRx1ujSudXJ-CRTfA
148,6bhu_7zmeLSjSS02B7sH1g,Wheelsport,Museums,Orleans,CA,1390 Youville Dr,K1C 2X8,45.46266,-75.55053,https://www.yelp.com/biz/wheelsport-orleans?adjust_creative=F8OOUfRx1ujSudXJ-CRTfA&utm_campaign=yelp_api_v3&utm_medium=api_v3_business_search&utm_source=F8OOUfRx1ujSudXJ-CRTfA
149,oO0rlvPvuPPvAl0Zw1f5FA,Whitehern Historic House & Garden,Museums,Hamilton,CA,41 Jackson Street W,L8P 1L3,43.2547799,-79.87195,https://www.yelp.com/biz/whitehern-historic-house-and-garden-hamilton?adjust_creative=F8OOUfRx1ujSudXJ-CRTfA&utm_campaign=yelp_api_v3&utm_medium=api_v3_business_search&utm_source=F8OOUfRx1ujSudXJ-CRTfA
150,zmga5N1j8OPLyF6AWkiDDQ,Windsor Public Library,Museums,Windsor,CA,850 Ouellette Avenue,N9A 4M9,42.3111775,-83.0345176,https://www.yelp.com/biz/windsor-public-library-windsor-3?adjust_creative=F8OOUfRx1ujSudXJ-CRTfA&utm_campaign=yelp_api_v3&utm_medium=api_v3_business_search&utm_source=F8OOUfRx1ujSudXJ-CRTfA
151,tVe-Pf63ea2xabBzxFfQKw,Windsor's Community Museum,Museums,Windsor,CA,254 Pitt Street W,N9A 5L5,42.31851,-83.0425,https://www.yelp.com/biz/windsors-community-museum-windsor?adjust_creative=F8OOUfRx1ujSudXJ-CRTfA&utm_campaign=yelp_api_v3&utm_medium=api_v3_business_search&utm_source=F8OOUfRx1ujSudXJ-CRTfA
